start=new Date('2022-12-08T00:00:00.000Z').valueOf();
sats=[{"BSTAR":"-0.00035251000000","REV_AT_EPOCH":"11822","PERIAPSIS":"546.249","MEAN_ELEMENT_THEORY":"SGP4","EPOCH":"2022-12-07T19:25:16.510368","MEAN_MOTION_DOT":"-0.00005523","PERIOD":"95.594","EPHEMERIS_TYPE":"0","GP_ID":"219738939","OBJECT_NAME":"STARLINK-1789","DECAY_DATE":null,"SEMIMAJOR_AXIS":"6925.456","FILE":"3684212","TLE_LINE2":"2 46690  53.0546 164.2347 0001548  38.6220 321.4880 15.06365033118228","ELEMENT_SET_NO":"999","RA_OF_ASC_NODE":"164.2347","TIME_SYSTEM":"UTC","COUNTRY_CODE":"US","NORAD_CAT_ID":"46690","APOAPSIS":"548.393","MEAN_MOTION":"15.06365033","INCLINATION":"53.0546","MEAN_ANOMALY":"321.4880","ARG_OF_PERICENTER":"38.6220","OBJECT_TYPE":"PAYLOAD","ECCENTRICITY":"0.00015480","CLASSIFICATION_TYPE":"U","MEAN_MOTION_DDOT":"0.0000000000000","OBJECT_ID":"2020-073W","RCS_SIZE":"LARGE","SITE":"AFETR","REF_FRAME":"TEME","LAUNCH_DATE":"2020-10-18","CENTER_NAME":"EARTH","TLE_LINE1":"1 46690U 20073W   22341.80921887 -.00005523  00000-0 -35251-3 0  9998"},{"INCLINATION":"53.0544","OBJECT_TYPE":"PAYLOAD","MEAN_ANOMALY":"300.5378","ARG_OF_PERICENTER":"59.5796","SITE":"AFETR","RCS_SIZE":"LARGE","OBJECT_ID":"2020-073X","MEAN_MOTION_DDOT":"0.0000000000000","ECCENTRICITY":"0.00018730","CLASSIFICATION_TYPE":"U","TLE_LINE1":"1 46691U 20073X   22341.80826589  .00002493  00000-0  18614-3 0  9997","LAUNCH_DATE":"2020-10-18","CENTER_NAME":"EARTH","REF_FRAME":"TEME","EPOCH":"2022-12-07T19:23:54.172896","MEAN_MOTION_DOT":"0.00002493","MEAN_ELEMENT_THEORY":"SGP4","REV_AT_EPOCH":"11808","PERIAPSIS":"545.885","BSTAR":"0.00018614000000","EPHEMERIS_TYPE":"0","GP_ID":"219739188","PERIOD":"95.591","TLE_LINE2":"2 46691  53.0544 174.2288 0001873  59.5796 300.5378 15.06410137118083","RA_OF_ASC_NODE":"174.2288","ELEMENT_SET_NO":"999","FILE":"3684212","SEMIMAJOR_AXIS":"6925.317","DECAY_DATE":null,"OBJECT_NAME":"STARLINK-1790","MEAN_MOTION":"15.06410137","NORAD_CAT_ID":"46691","APOAPSIS":"548.480","TIME_SYSTEM":"UTC","COUNTRY_CODE":"US"},{"ARG_OF_PERICENTER":"76.1002","MEAN_ANOMALY":"284.0172","OBJECT_TYPE":"PAYLOAD","INCLINATION":"53.0549","TLE_LINE1":"1 46692U 20073Y   22341.86033482 -.00000127  00000-0  10352-4 0  9991","REF_FRAME":"TEME","CENTER_NAME":"EARTH","LAUNCH_DATE":"2020-10-18","RCS_SIZE":"LARGE","SITE":"AFETR","CLASSIFICATION_TYPE":"U","ECCENTRICITY":"0.00016660","MEAN_MOTION_DDOT":"0.0000000000000","OBJECT_ID":"2020-073Y","GP_ID":"219737939","EPHEMERIS_TYPE":"0","PERIOD":"95.592","MEAN_ELEMENT_THEORY":"SGP4","MEAN_MOTION_DOT":"-0.00000127","EPOCH":"2022-12-07T20:38:52.928448","BSTAR":"0.00001035200000","PERIAPSIS":"546.071","REV_AT_EPOCH":"11788","APOAPSIS":"548.378","NORAD_CAT_ID":"46692","MEAN_MOTION":"15.06396409","COUNTRY_CODE":"US","TIME_SYSTEM":"UTC","FILE":"3684212","ELEMENT_SET_NO":"999","RA_OF_ASC_NODE":"188.9907","TLE_LINE2":"2 46692  53.0549 188.9907 0001666  76.1002 284.0172 15.06396409117884","DECAY_DATE":null,"OBJECT_NAME":"STARLINK-1791","SEMIMAJOR_AXIS":"6925.360"},{"CLASSIFICATION_TYPE":"U","ECCENTRICITY":"0.00013290","OBJECT_ID":"2020-073Z","MEAN_MOTION_DDOT":"0.0000000000000","RCS_SIZE":"LARGE","SITE":"AFETR","REF_FRAME":"TEME","CENTER_NAME":"EARTH","LAUNCH_DATE":"2020-10-18","TLE_LINE1":"1 46693U 20073Z   22341.54657225  .00001098  00000-0  92591-4 0  9996","INCLINATION":"53.0535","ARG_OF_PERICENTER":"77.0774","MEAN_ANOMALY":"283.0363","OBJECT_TYPE":"PAYLOAD","DECAY_DATE":null,"OBJECT_NAME":"STARLINK-1792","SEMIMAJOR_AXIS":"6925.361","FILE":"3683829","ELEMENT_SET_NO":"999","RA_OF_ASC_NODE":"175.4139","TLE_LINE2":"2 46693  53.0535 175.4139 0001329  77.0774 283.0363 15.06396088118515","COUNTRY_CODE":"US","TIME_SYSTEM":"UTC","APOAPSIS":"548.146","NORAD_CAT_ID":"46693","MEAN_MOTION":"15.06396088","BSTAR":"0.00009259100000","PERIAPSIS":"546.305","REV_AT_EPOCH":"11851","MEAN_ELEMENT_THEORY":"SGP4","MEAN_MOTION_DOT":"0.00001098","EPOCH":"2022-12-07T13:07:03.842400","PERIOD":"95.592","GP_ID":"219712563","EPHEMERIS_TYPE":"0"},{"MEAN_ANOMALY":"273.0422","ARG_OF_PERICENTER":"87.0765","OBJECT_TYPE":"PAYLOAD","INCLINATION":"53.0534","REF_FRAME":"TEME","LAUNCH_DATE":"2020-10-18","CENTER_NAME":"EARTH","TLE_LINE1":"1 46694U 20073AA  22341.76956576  .00001751  00000-0  13640-3 0  9995","ECCENTRICITY":"0.00017380","CLASSIFICATION_TYPE":"U","MEAN_MOTION_DDOT":"0.0000000000000","OBJECT_ID":"2020-073AA","RCS_SIZE":"LARGE","SITE":"AFETR","PERIOD":"95.592","EPHEMERIS_TYPE":"0","GP_ID":"219738439","BSTAR":"0.00013640000000","REV_AT_EPOCH":"11836","PERIAPSIS":"545.990","MEAN_ELEMENT_THEORY":"SGP4","EPOCH":"2022-12-07T18:28:10.481664","MEAN_MOTION_DOT":"0.00001751","TIME_SYSTEM":"UTC","COUNTRY_CODE":"US","NORAD_CAT_ID":"46694","APOAPSIS":"548.397","MEAN_MOTION":"15.06406481","DECAY_DATE":null,"OBJECT_NAME":"STARLINK-1793","SEMIMAJOR_AXIS":"6925.329","FILE":"3684212","TLE_LINE2":"2 46694  53.0534 154.4036 0001738  87.0765 273.0422 15.06406481118360","ELEMENT_SET_NO":"999","RA_OF_ASC_NODE":"154.4036"},{"FILE":"3684212","TLE_LINE2":"2 46696  53.0542 154.0287 0001582  67.3463 292.7693 15.06385670118373","RA_OF_ASC_NODE":"154.0287","ELEMENT_SET_NO":"999","DECAY_DATE":null,"OBJECT_NAME":"STARLINK-1795","SEMIMAJOR_AXIS":"6925.392","NORAD_CAT_ID":"46696","APOAPSIS":"548.353","MEAN_MOTION":"15.06385670","TIME_SYSTEM":"UTC","COUNTRY_CODE":"US","MEAN_ELEMENT_THEORY":"SGP4","EPOCH":"2022-12-07T20:30:15.914304","MEAN_MOTION_DOT":"0.00000357","BSTAR":"0.00004289700000","REV_AT_EPOCH":"11837","PERIAPSIS":"546.162","EPHEMERIS_TYPE":"0","GP_ID":"219738688","PERIOD":"95.593","RCS_SIZE":"LARGE","SITE":"AFETR","ECCENTRICITY":"0.00015820","CLASSIFICATION_TYPE":"U","MEAN_MOTION_DDOT":"0.0000000000000","OBJECT_ID":"2020-073AC","TLE_LINE1":"1 46696U 20073AC  22341.85435086  .00000357  00000-0  42897-4 0  9993","REF_FRAME":"TEME","LAUNCH_DATE":"2020-10-18","CENTER_NAME":"EARTH","INCLINATION":"53.0542","MEAN_ANOMALY":"292.7693","ARG_OF_PERICENTER":"67.3463","OBJECT_TYPE":"PAYLOAD"},{"EPHEMERIS_TYPE":"0","GP_ID":"219737439","PERIOD":"95.592","MEAN_ELEMENT_THEORY":"SGP4","EPOCH":"2022-12-07T20:15:36.918720","MEAN_MOTION_DOT":"0.00000369","BSTAR":"0.00004364300000","REV_AT_EPOCH":"11809","PERIAPSIS":"545.989","NORAD_CAT_ID":"46698","APOAPSIS":"548.430","MEAN_MOTION":"15.06401375","TIME_SYSTEM":"UTC","COUNTRY_CODE":"US","FILE":"3684212","TLE_LINE2":"2 46698  53.0553 174.0597 0001762  77.0288 283.0898 15.06401375118096","ELEMENT_SET_NO":"999","RA_OF_ASC_NODE":"174.0597","DECAY_DATE":null,"OBJECT_NAME":"STARLINK-1797","SEMIMAJOR_AXIS":"6925.344","MEAN_ANOMALY":"283.0898","ARG_OF_PERICENTER":"77.0288","OBJECT_TYPE":"PAYLOAD","INCLINATION":"53.0553","TLE_LINE1":"1 46698U 20073AE  22341.84417730  .00000369  00000-0  43643-4 0  9993","REF_FRAME":"TEME","LAUNCH_DATE":"2020-10-18","CENTER_NAME":"EARTH","RCS_SIZE":"LARGE","SITE":"AFETR","ECCENTRICITY":"0.00017620","CLASSIFICATION_TYPE":"U","OBJECT_ID":"2020-073AE","MEAN_MOTION_DDOT":"0.0000000000000"},{"TLE_LINE1":"1 46699U 20073AF  22341.58342300  .00000073  00000-0  23822-4 0  9994","REF_FRAME":"TEME","CENTER_NAME":"EARTH","LAUNCH_DATE":"2020-10-18","RCS_SIZE":"LARGE","SITE":"AFETR","CLASSIFICATION_TYPE":"U","ECCENTRICITY":"0.00014280","OBJECT_ID":"2020-073AF","MEAN_MOTION_DDOT":"0.0000000000000","ARG_OF_PERICENTER":"75.7450","MEAN_ANOMALY":"284.3698","OBJECT_TYPE":"PAYLOAD","INCLINATION":"53.0546","APOAPSIS":"548.209","NORAD_CAT_ID":"46699","MEAN_MOTION":"15.06397755","COUNTRY_CODE":"US","TIME_SYSTEM":"UTC","FILE":"3684212","ELEMENT_SET_NO":"999","RA_OF_ASC_NODE":"175.2412","TLE_LINE2":"2 46699  53.0546 175.2412 0001428  75.7450 284.3698 15.06397755118057","DECAY_DATE":null,"OBJECT_NAME":"STARLINK-1799","SEMIMAJOR_AXIS":"6925.355","GP_ID":"219737689","EPHEMERIS_TYPE":"0","PERIOD":"95.592","MEAN_ELEMENT_THEORY":"SGP4","MEAN_MOTION_DOT":"0.00000073","EPOCH":"2022-12-07T14:00:07.747200","BSTAR":"0.00002382200000","PERIAPSIS":"546.231","REV_AT_EPOCH":"11805"},{"CLASSIFICATION_TYPE":"U","ECCENTRICITY":"0.00015120","MEAN_MOTION_DDOT":"0.0000000000000","OBJECT_ID":"2020-073AG","RCS_SIZE":"LARGE","SITE":"AFETR","REF_FRAME":"TEME","CENTER_NAME":"EARTH","LAUNCH_DATE":"2020-10-18","TLE_LINE1":"1 46700U 20073AG  22341.85294826  .00000078  00000-0  24112-4 0  9994","INCLINATION":"53.0525","ARG_OF_PERICENTER":"51.8017","MEAN_ANOMALY":"308.3108","OBJECT_TYPE":"PAYLOAD","DECAY_DATE":null,"OBJECT_NAME":"STARLINK-1800","SEMIMAJOR_AXIS":"6925.357","FILE":"3684212","RA_OF_ASC_NODE":"189.0354","ELEMENT_SET_NO":"999","TLE_LINE2":"2 46700  53.0525 189.0354 0001512  51.8017 308.3108 15.06397130117883","COUNTRY_CODE":"US","TIME_SYSTEM":"UTC","APOAPSIS":"548.269","NORAD_CAT_ID":"46700","MEAN_MOTION":"15.06397130","BSTAR":"0.00002411200000","PERIAPSIS":"546.175","REV_AT_EPOCH":"11788","MEAN_ELEMENT_THEORY":"SGP4","MEAN_MOTION_DOT":"0.00000078","EPOCH":"2022-12-07T20:28:14.729664","PERIOD":"95.592","GP_ID":"219738940","EPHEMERIS_TYPE":"0"},{"TLE_LINE1":"1 46701U 20073AH  22341.81932858 -.00001739  00000-0 -97939-4 0  9999","CENTER_NAME":"EARTH","LAUNCH_DATE":"2020-10-18","REF_FRAME":"TEME","SITE":"AFETR","RCS_SIZE":"LARGE","MEAN_MOTION_DDOT":"0.0000000000000","OBJECT_ID":"2020-073AH","CLASSIFICATION_TYPE":"U","ECCENTRICITY":"0.00009580","OBJECT_TYPE":"PAYLOAD","ARG_OF_PERICENTER":"47.4711","MEAN_ANOMALY":"312.6359","INCLINATION":"53.0551","MEAN_MOTION":"15.06389673","APOAPSIS":"547.909","NORAD_CAT_ID":"46701","COUNTRY_CODE":"US","TIME_SYSTEM":"UTC","RA_OF_ASC_NODE":"174.1872","ELEMENT_SET_NO":"999","TLE_LINE2":"2 46701  53.0551 174.1872 0000958  47.4711 312.6359 15.06389673118091","FILE":"3684212","SEMIMAJOR_AXIS":"6925.380","OBJECT_NAME":"STARLINK-1801","DECAY_DATE":null,"GP_ID":"219739189","EPHEMERIS_TYPE":"0","PERIOD":"95.593","MEAN_MOTION_DOT":"-0.00001739","EPOCH":"2022-12-07T19:39:49.989312","MEAN_ELEMENT_THEORY":"SGP4","PERIAPSIS":"546.582","REV_AT_EPOCH":"11809","BSTAR":"-0.00009793900000"}];
